0 GAOFEN 11
1 43585U 18063A   26161.61034701  .00019321  00000-0  28818-3 0  9997
2 43585  97.1295 228.5092 0003964  21.9160 338.2264 15.55105306439329
0 ICESAT-2
1 43613U 18070A   26161.60705232  .00008572  00000-0  31092-3 0  9994
2 43613  92.0067 289.2022 0005415 114.6104 245.5710 15.28300151431457
0 HYSIS
1 43719U 18096A   26161.57988580  .00000861  00000-0  12452-3 0  9996
2 43719  97.9840 228.3798 0001747 109.7947 250.3453 14.78682610406441
0 KAZSTSAT
1 43783U 18099AB  26161.55944257  .00001201  00000-0  10140-3 0  9992
2 43783  97.4264 193.7893 0008065  87.0128 273.2019 14.99847184410312
0 SAUDISAT 5A
1 43831U 18102A   26161.61615769  .00004773  00000-0  17730-3 0  9990
2 43831  97.3074 223.3238 0010545 149.5611 210.6242 15.27979208414675
0 SAUDISAT 5B
1 43833U 18102C   26161.63611338  .00004665  00000-0  17194-3 0  9996
2 43833  97.3180 226.4011 0011200 152.0339 208.1505 15.28239801414799
0 GAOFEN 10R
1 44622U 19066A   26161.60925994  .00000995  00000-0  12907-3 0  9995
2 44622  98.0495 115.1406 0006238 145.6581 214.5036 14.83046257361407
0 CARTOSAT 3
1 44804U 19081A   26161.63683012  .00006417  00000-0  30710-3 0  9996
2 44804  97.4311 223.6091 0012569 170.0339 190.1147 15.19240991362472
0 GAOFEN 12
1 44819U 19082A   26161.59126718  .00000349  00000-0  52246-4 0  9990
2 44819  97.8106 168.1448 0002438  77.8399 282.3086 14.80453141353114
0 CSG-1
1 44873U 19092A   26161.63783426  .00000366  00000-0  52535-4 0  9991
2 44873  97.8887 345.3353 0001433  91.1050 269.0327 14.82159463350503
0 NEMO-HD
1 46277U 20061F   26161.65105457  .00009805  00000-0  21363-3 0  9994
2 46277  97.1927 223.6702 0002502  88.0588 272.0947 15.44462726320974
0 S6 MICHAEL FREILICH
1 46984U 20086A   26161.29287758 -.00000026  00000-0  15073-3 0  9999
2 46984  66.0387 149.3719 0007945 270.2753  89.7352 12.80929857259447
0 CAS500-1
1 47932U 21022A   26161.61223131  .00006538  00000-0  30542-3 0  9996
2 47932  97.3912  56.9984 0004320 332.6558  27.4450 15.20130868289768
0 GAOFEN 12 (02)
1 48079U 21026A   26161.60162035  .00000329  00000-0  50180-4 0  9990
2 48079  97.9920 159.8092 0003369 250.7834 109.3013 14.80291005280782
0 PNEO3
1 48268U 21034A   26161.63496902  .00001376  00000-0  18144-3 0  9991
2 48268  97.8927 236.4961 0001417  89.7309 270.4066 14.81674407276688
0 LANDSAT 9
1 49260U 21088A   26161.46684507  .00000251  00000-0  65785-4 0  9999
2 49260  98.2279 231.7253 0001464  87.8953 272.2414 14.57105991250021
0 CSG-2
1 51444U 22008A   26161.60407176  .00000437  00000-0  61475-4 0  9998
2 51444  97.8890 345.2974 0001423  86.8891 273.2485 14.82151718235611
0 GAOFEN 12 (03)
1 52912U 22069A   26161.63034579  .00000238  00000-0  38164-4 0  9990
2 52912  97.8289  49.6652 0001797 110.1662 249.9743 14.80022189213646
0 SWOT
1 54754U 22173A   26161.62882050  .00000093  00000-0  64621-4 0  9992
2 54754  77.6111  44.1639 0000241  97.2098 262.9081 14.00168776178238
0 GAOFEN 12 04
1 57654U 23123A   26161.64788823  .00000848  00000-0  11839-3 0  9995
2 57654  97.9126  79.7595 0001792  86.1969 273.9448 14.80216051151667
0 RESURS P4
1 59371U 24061A   26161.60137606  .00002782  00000-0  92233-4 0  9995
2 59371  97.2746 109.6150 0001659 131.4184 228.7201 15.32093585122757
0 LEGION 1
1 59625U 24081A   26161.56334450  .00003628  00000-0  18882-3 0  9997
2 59625  97.5018 239.4911 0010135  39.5131 320.6839 15.16620817116534
0 LEGION 2
1 59626U 24081B   26161.52725459  .00002966  00000-0  15505-3 0  9990
2 59626  97.5018 239.5531 0011426   7.5771 352.5632 15.16600013116534
0 ALOS-4
1 60182U 24123A   26161.59812652  .00001279  00000-0  17815-3 0  9997
2 60182  97.9242 258.8643 0001632  97.1733 262.9664 14.79473106104901
0 LEGION 3
1 60452U 24146A   26161.21209483  .00004047  00000-0  22061-3 0  9998
2 60452  45.0015  67.9616 0007004 126.5549 233.5975 15.15986784100966
0 LEGION 4
1 60453U 24146B   26161.47871551  .00002727  00000-0  15299-3 0  9996
2 60453  45.0002 158.4431 0014107 273.4691  86.4574 15.15983448 99855
0 SENTINEL-2C
1 60989U 24157A   26161.45925523  .00000074  00000-0  44832-4 0  9998
2 60989  98.5691 236.3362 0001141  79.7892 280.3420 14.30815963 92028
0 IONOSFERA-M 01
1 61735U 24199A   26161.58315173  .00000046  00000-0  40273-4 0  9996
2 61735  98.7182  34.8248 0001755 119.2378 240.8976 14.22753047126760
