OBJECT_NAME,OBJECT_ID,EPOCH,MEAN_MOTION,ECCENTRICITY,INCLINATION,RA_OF_ASC_NODE,ARG_OF_PERICENTER,MEAN_ANOMALY,EPHEMERIS_TYPE,CLASSIFICATION_TYPE,NORAD_CAT_ID,ELEMENT_SET_NO,REV_AT_EPOCH,BSTAR,MEAN_MOTION_DOT,MEAN_MOTION_DDOT
GAOFEN-11 01,2018-063A,2026-06-10T14:38:53.981664,15.55105306,.0003964,97.1295,228.5092,21.9160,338.2264,0,U,43585,999,43932,.28817818E-3,.19321E-3,0
ICESAT-2,2018-070A,2026-06-10T14:34:09.320448,15.28300151,.0005415,92.0067,289.2022,114.6104,245.5710,0,U,43613,999,43145,.31092358E-3,.8572E-4,0
HYSIS,2018-096A,2026-06-10T13:55:02.133120,14.78682610,.00017465,97.9840,228.3798,109.7947,250.3453,0,U,43719,999,40644,.12452183E-3,.861E-5,0
KAZSTSAT,2018-099AB,2026-06-10T13:25:35.838048,14.99847184,.00080648,97.4264,193.7893,87.0128,273.2019,0,U,43783,999,41031,.10140279E-3,.1201E-4,0
SAUDISAT 5A,2018-102A,2026-06-10T14:47:16.024416,15.27979208,.0010545,97.3074,223.3238,149.5611,210.6242,0,U,43831,999,41467,.17729707E-3,.4773E-4,0
SAUDISAT 5B,2018-102C,2026-06-10T15:16:00.196032,15.28239801,.00112002,97.3180,226.4011,152.0339,208.1505,0,U,43833,999,41479,.17194494E-3,.4665E-4,0
GAOFEN-10R,2019-066A,2026-06-10T14:37:20.058816,14.83046257,.00062379,98.0495,115.1406,145.6581,214.5036,0,U,44622,999,36140,.1290681E-3,.995E-5,0
CARTOSAT-3,2019-081A,2026-06-10T15:17:02.122368,15.19240991,.00125695,97.4311,223.6091,170.0339,190.1147,0,U,44804,999,36247,.30710028E-3,.6417E-4,0
GAOFEN-12 01,2019-082A,2026-06-10T14:11:25.484352,14.80453141,.00024384,97.8106,168.1448,77.8399,282.3086,0,U,44819,999,35311,.52245509E-4,.349E-5,0
CSG-1,2019-092A,2026-06-10T15:18:28.880064,14.82159463,.00014332,97.8887,345.3353,91.1050,269.0327,0,U,44873,999,35050,.52534661E-4,.366E-5,0
NEMO-HD,2020-061F,2026-06-10T15:37:31.114848,15.44462726,.00025023,97.1927,223.6702,88.0588,272.0947,0,U,46277,999,32097,.2136276E-3,.9805E-4,0
SENTINEL-6A,2020-086A,2026-06-10T07:01:44.622912,12.80929857,.00079452,66.0387,149.3719,270.2753,89.7352,0,U,46984,999,25944,.15073167E-3,-.26E-6,0
CAS500-1,2021-022A,2026-06-10T14:41:36.785184,15.20130868,.00043198,97.3912,56.9984,332.6558,27.4450,0,U,47932,999,28976,.305421E-3,.6538E-4,0
GAOFEN-12 02,2021-026A,2026-06-10T14:26:19.998240,14.80291005,.00033691,97.9920,159.8092,250.7834,109.3013,0,U,48079,999,28078,.50180393E-4,.329E-5,0
PLEIADES NEO 3,2021-034A,2026-06-10T15:14:21.323328,14.81674407,.00014166,97.8927,236.4961,89.7309,270.4066,0,U,48268,999,27668,.18143868E-3,.1376E-4,0
LANDSAT 9,2021-088A,2026-06-10T11:12:15.414048,14.57105991,.00014643,98.2279,231.7253,87.8953,272.2414,0,U,49260,999,25002,.6578491E-4,.251E-5,0
CSG-2,2022-008A,2026-06-10T14:29:51.800064,14.82151718,.00014225,97.8890,345.2974,86.8891,273.2485,0,U,51444,999,23561,.61475182E-4,.437E-5,0
GAOFEN-12 03,2022-069A,2026-06-10T15:07:41.876256,14.80022189,.00017969,97.8289,49.6652,110.1662,249.9743,0,U,52912,999,21364,.38163508E-4,.238E-5,0
SWOT,2022-173A,2026-06-10T15:05:30.091200,14.00168776,.00002409,77.6111,44.1639,97.2098,262.9081,0,U,54754,999,17823,.64620846E-4,.93E-6,0
GAOFEN-12 04,2023-123A,2026-06-10T15:32:57.543072,14.80216051,.00017921,97.9126,79.7595,86.1969,273.9448,0,U,57654,999,15166,.11839073E-3,.848E-5,0
RESURS-P 4,2024-061A,2026-06-10T14:25:58.891584,15.32093585,.00016585,97.2746,109.6150,131.4184,228.7201,0,U,59371,999,12275,.92233343E-4,.2782E-4,0
LEGION 1,2024-081A,2026-06-10T13:31:12.964800,15.16620817,.00101353,97.5018,239.4911,39.5131,320.6839,0,U,59625,999,11653,.18882327E-3,.3628E-4,0
LEGION 2,2024-081B,2026-06-10T12:39:14.796576,15.16600013,.00114257,97.5018,239.5531,7.5771,352.5632,0,U,59626,999,11653,.15505131E-3,.2966E-4,0
ALOS-4 (DAICHI-4),2024-123A,2026-06-10T14:21:18.131328,14.79473106,.00016317,97.9242,258.8643,97.1733,262.9664,0,U,60182,999,10490,.17814918E-3,.1279E-4,0
LEGION 3,2024-146A,2026-06-10T05:05:24.993312,15.15986784,.0007004,45.0015,67.9616,126.5549,233.5975,0,U,60452,999,10096,.22061E-3,.4047E-4,0
LEGION 4,2024-146B,2026-06-10T11:29:21.020064,15.15983448,.00141074,45.0002,158.4431,273.4691,86.4574,0,U,60453,999,9985,.15298627E-3,.2727E-4,0
SENTINEL-2C,2024-157A,2026-06-10T11:01:19.651872,14.30815963,.00011414,98.5691,236.3362,79.7892,280.3420,0,U,60989,999,9202,.44831658E-4,.74E-6,0
IONOSFERA-M 1,2024-199A,2026-06-10T13:59:44.309472,14.22753047,.00017546,98.7182,34.8248,119.2378,240.8976,0,U,61735,999,12676,.40272807E-4,.46E-6,0
